     2.100          NAVIGATION                              RINEX VERSION / TYPE
fic2rin                                 07/18/2012 00:09:05 PGM / RUN BY / DATE
                                                            END OF HEADER
 3 12  7 17 12  0  0.0  .764653086662D-04  .488853402203D-11  .000000000000D+00
     .380000000000D+02 -.857187500000D+02  .464126475588D-08  .306098462979D+01
    -.434927642345D-05  .155729074031D-01  .104587525129D-04  .515373321152D+04
     .216000000000D+06  .165775418282D-06  .299326723300D+01 -.894069671631D-07
     .932116562625D+00  .160875000000D+03  .120619117656D+01 -.771032116583D-08
     .225366530278D-09  .100000000000D+01  .169700000000D+04  .000000000000D+00
     .240000000000D+01  .000000000000D+00 -.465661287308D-08  .380000000000D+02
     .208806000000D+06  .400000000000D+01
 4 12  7 17 12  0  0.0  .246423296630D-03  .112549969344D-10  .000000000000D+00
     .200000000000D+02  .185312500000D+02  .533415076022D-08 -.168807871205D+00
     .116042792797D-05  .100435261847D-01  .547803938389D-05  .515361782837D+04
     .216000000000D+06  .130385160446D-07 -.210872265825D+01  .145286321640D-06
     .937425158789D+00  .262156250000D+03  .869342504999D+00 -.854892752572D-08
     .408588447920D-09  .100000000000D+01  .169700000000D+04  .000000000000D+00
     .240000000000D+01  .000000000000D+00 -.605359673500D-08  .200000000000D+02
     .208806000000D+06  .400000000000D+01
 5 12  7 17 12  0  0.0 -.335391610861D-03 -.341060513165D-11  .000000000000D+00
     .370000000000D+02 -.133750000000D+02  .491020452973D-08 -.126177577741D+01
    -.879168510437D-06  .271140399855D-02  .755675137043D-05  .515369764328D+04
     .216000000000D+06  .409781932831D-07 -.106152499685D+01 -.242143869400D-07
     .950323249601D+00  .223656250000D+03  .203162182109D+00 -.807390773924D-08
    -.402159608705D-09  .100000000000D+01  .169700000000D+04  .000000000000D+00
     .240000000000D+01  .000000000000D+00 -.102445483208D-07  .370000000000D+02
     .208806000000D+06  .400000000000D+01
 6 12  7 17 12  0  0.0  .573135912418D-05 -.522959453519D-11  .000000000000D+00
     .280000000000D+02 -.680000000000D+02  .458554814934D-08 -.135162495084D+01
    -.351294875145D-05  .736243324354D-02  .108070671558D-04  .515369174767D+04
     .216000000000D+06 -.949949026108D-07  .307024905592D+01  .186264514923D-08
     .938959976366D+00  .162281250000D+03 -.489902900228D+00 -.795711716015D-08
     .378587198248D-09  .100000000000D+01  .169700000000D+04  .000000000000D+00
     .240000000000D+01  .000000000000D+00 -.512227416039D-08  .280000000000D+02
     .208806000000D+06  .400000000000D+01
 7 12  7 17 12  0  0.0  .101312529296D-03  .386535248253D-11  .000000000000D+00
     .800000000000D+01  .691562500000D+02  .448232956416D-08  .155203056958D+01
     .377930700779D-05  .568390428089D-02  .191293656826D-05  .515373393440D+04
     .216000000000D+06  .113621354103D-06  .104987561341D+01  .115483999252D-06
     .975752227083D+00  .350031250000D+03 -.302600799500D+01 -.833606151614D-08
     .482162941165D-10  .100000000000D+01  .169700000000D+04  .000000000000D+00
     .240000000000D+01  .000000000000D+00 -.107102096081D-07  .800000000000D+01
     .208806000000D+06  .400000000000D+01
 8 12  7 17 12  0  0.0  .178627669811D-05  .113686837722D-12  .000000000000D+00
     .920000000000D+02  .522500000000D+02  .398230873629D-08  .840354293181D+00
     .282190740108D-05  .124543874990D-01  .126846134663D-05  .515366773605D+04
     .216000000000D+06  .782310962677D-07  .113432728183D+01  .126659870148D-06
     .997954144796D+00  .368562500000D+03 -.295934010003D+01 -.813176729218D-08
    -.789318592573D-10  .100000000000D+01  .169700000000D+04  .000000000000D+00
     .240000000000D+01  .000000000000D+00 -.372529029846D-08  .920000000000D+02
     .208806000000D+06  .400000000000D+01
 9 12  7 17 12  0  0.0  .172305852175D-03  .250111042988D-11  .000000000000D+00
     .790000000000D+02  .679375000000D+02  .442839874630D-08  .838074810803D+00
     .331178307533D-05  .175052998820D-01  .234134495258D-05  .515361286545D+04
     .216000000000D+06 -.277534127235D-06  .102449522529D+01 -.150874257088D-06
     .984486358574D+00  .350625000000D+03  .163536163544D+01 -.848713923770D-08
     .114647632677D-09  .100000000000D+01  .169700000000D+04  .000000000000D+00
     .340000000000D+01  .000000000000D+00 -.558793544769D-08  .790000000000D+02
     .208806000000D+06  .400000000000D+01
10 12  7 17 12  0  0.0 -.450876541436D-04 -.136424205266D-11  .000000000000D+00
     .210000000000D+02 -.182187500000D+02  .502306637373D-08 -.102252427965D+01
    -.786036252975D-06  .113796386868D-01  .750459730625D-05  .515370602608D+04
     .216000000000D+06  .245869159698D-06 -.104024429620D+01  .167638063431D-06
     .945213600055D+00  .223468750000D+03  .753145133895D+00 -.818569811004D-08
    -.432518016111D-09  .100000000000D+01  .169700000000D+04  .000000000000D+00
     .240000000000D+01  .000000000000D+00 -.232830643654D-08  .210000000000D+02
     .208806000000D+06  .400000000000D+01
11 12  7 17 12  0  0.0 -.282624270767D-03 -.386535248253D-11  .000000000000D+00
     .570000000000D+02  .254687500000D+02  .630776274364D-08  .163614841473D+01
     .120699405670D-05  .131195187569D-01  .703893601894D-05  .515367607307D+04
     .216000000000D+06 -.320374965668D-06 -.238448948365D+01 -.176951289177D-06
     .888166998372D+00  .205937500000D+03  .106246138730D+01 -.893394356318D-08
     .559309011751D-09  .100000000000D+01  .169700000000D+04  .000000000000D+00
     .240000000000D+01  .000000000000D+00 -.116415321827D-07  .570000000000D+02
     .208806000000D+06  .400000000000D+01
12 12  7 17 12  0  0.0  .803987495601D-04  .204636307899D-11  .000000000000D+00
     .106000000000D+03 -.118531250000D+03  .409374194936D-08  .117407418819D+01
    -.609830021858D-05  .407089118380D-02  .484101474285D-05  .515376256371D+04
     .216000000000D+06  .745058059692D-08  .210708816767D+01  .104308128357D-06
     .980359699277D+00  .294531250000D+03  .113723044130D+00 -.800497629654D-08
    -.435732435719D-09  .100000000000D+01  .169700000000D+04  .000000000000D+00
     .340000000000D+01  .000000000000D+00 -.121071934700D-07  .106000000000D+03
     .208806000000D+06  .400000000000D+01
13 12  7 17 12  0  0.0  .194069929421D-03 -.250111042988D-11  .000000000000D+00
     .580000000000D+02  .102093750000D+03  .378587198248D-08 -.252582343002D+01
     .543892383575D-05  .493923632894D-02  .966340303421D-05  .515365149117D+04
     .216000000000D+06 -.186264514923D-08  .802092923075D-01  .782310962677D-07
     .985580739794D+00  .208031250000D+03  .204865547013D+01 -.751567020069D-08
     .660741808263D-10  .100000000000D+01  .169700000000D+04  .000000000000D+00
     .240000000000D+01  .000000000000D+00 -.111758708954D-07  .580000000000D+02
     .208806000000D+06  .400000000000D+01
15 12  7 17 12  0  0.0 -.926041975617D-04 -.341060513165D-12  .000000000000D+00
     .310000000000D+02  .109625000000D+03  .464805075283D-08 -.274325147283D+01
     .564754009247D-05  .444203731604D-02  .104103237391D-04  .515360009766D+04
     .216000000000D+06 -.894069671631D-07 -.362368699597D-01 -.335276126862D-07
     .945161786422D+00  .173250000000D+03  .444813671589D-01 -.791211528565D-08
    -.553594488004D-10  .100000000000D+01  .169700000000D+04  .000000000000D+00
     .240000000000D+01  .000000000000D+00 -.102445483208D-07  .310000000000D+02
     .208806000000D+06  .400000000000D+01
18 12  7 17 12  0  0.0  .205649062991D-03  .181898940355D-11  .000000000000D+00
     .102000000000D+03 -.166250000000D+02  .553773066871D-08 -.533429334444D+00
    -.666826963425D-06  .135763172293D-01  .763498246670D-05  .515370452309D+04
     .216000000000D+06 -.186264514923D-07 -.105222529830D+01  .191852450371D-06
     .929014474096D+00  .218812500000D+03 -.216178390097D+01 -.857821445992D-08
    -.427517807833D-09  .100000000000D+01  .169700000000D+04  .000000000000D+00
     .240000000000D+01  .000000000000D+00 -.107102096081D-07  .102000000000D+03
     .208806000000D+06  .400000000000D+01
19 12  7 17 12  0  0.0 -.285497400910D-03 -.363797880709D-11  .000000000000D+00
     .700000000000D+02 -.419375000000D+02  .407874132452D-08 -.282881579432D+01
    -.214762985706D-05  .851382897235D-02  .110678374767D-04  .515360722351D+04
     .216000000000D+06 -.428408384323D-07 -.306532431191D+01 -.577419996262D-07
     .961055948089D+00  .167781250000D+03  .203337843460D+00 -.761138847345D-08
     .425732019162D-09  .100000000000D+01  .169700000000D+04  .000000000000D+00
     .240000000000D+01  .000000000000D+00 -.144354999065D-07  .700000000000D+02
     .208806000000D+06  .400000000000D+01
20 12  7 17 12  0  0.0  .648922286928D-04  .454747350886D-12  .000000000000D+00
     .610000000000D+02 -.267500000000D+02  .550130057982D-08 -.144526198931D+00
    -.155530869961D-05  .491621706169D-02  .733695924282D-05  .515366309166D+04
     .216000000000D+06 -.577419996262D-07 -.110593020888D+01  .409781932831D-07
     .929483504650D+00  .226187500000D+03  .128730227594D+01 -.849821112746D-08
    -.402516766439D-09  .100000000000D+01  .169700000000D+04  .000000000000D+00
     .240000000000D+01  .000000000000D+00 -.791624188423D-08  .610000000000D+02
     .208806000000D+06  .400000000000D+01
21 12  7 17 12  0  0.0 -.237146392465D-03 -.250111042988D-11  .000000000000D+00
     .850000000000D+02  .192812500000D+02  .551522973146D-08  .579209619251D+00
     .113807618618D-05  .192800711375D-01  .586360692978D-05  .515358072090D+04
     .216000000000D+06 -.316649675369D-06 -.210307442371D+01  .201165676117D-06
     .931130427103D+00  .253812500000D+03 -.223319288522D+01 -.866428947386D-08
     .246795994329D-09  .100000000000D+01  .169700000000D+04  .000000000000D+00
     .240000000000D+01  .000000000000D+00 -.111758708954D-07  .850000000000D+02
     .208806000000D+06  .400000000000D+01
